{"type": "FeatureCollection", "features": [ {"type": "Feature", "properties": {"norad_id": 40118, "name": "GAOFEN-2", "group": "resource", "lat": -21.611914561230048, "lon": 59.87850996324724, "alt_km": 634.2835859336974, "timestamp": "2025-12-23T11:34:47.839115+00:00", "meta": {"OBJECT_NAME": "GAOFEN-2", "OBJECT_ID": "2014-049A", "EPOCH": "2025-12-23T05:11:26.502144", "MEAN_MOTION": 14.80626847, "ECCENTRICITY": 0.0008782, "INCLINATION": 98.0372, "RA_OF_ASC_NODE": 56.4029, "ARG_OF_PERICENTER": 84.1685, "MEAN_ANOMALY": 276.0527, "EPHEMERIS_TYPE": 0, "CLASSIFICATION_TYPE": "U", "NORAD_CAT_ID": 40118, "ELEMENT_SET_NO": 999, "REV_AT_EPOCH": 61319, "BSTAR": 0.00013246, "MEAN_MOTION_DOT": 9.64e-06, "MEAN_MOTION_DDOT": 0}, "tle": {"line1": "1 40118U 14049A   25357.21627896  .00000964  00000+0  13246-3 0  9992", "line2": "2 40118  98.0372  56.4029 0008782  84.1685 276.0527 14.80626847613193"}}, "geometry": {"type": "Point", "coordinates": [59.87850996324724, -21.611914561230048]}}, {"type": "Feature", "properties": {"norad_id": 40143, "name": "YAOGAN-21", "group": "resource", "lat": 13.795406469205568, "lon": -137.8997902414946, "alt_km": 501.19509999138245, "timestamp": "2025-12-23T11:34:47.839124+00:00", "meta": {"OBJECT_NAME": "YAOGAN-21", "OBJECT_ID": "2014-053A", "EPOCH": "2025-12-23T04:32:59.529696", "MEAN_MOTION": 15.23774868, "ECCENTRICITY": 0.0008683, "INCLINATION": 97.1738, "RA_OF_ASC_NODE": 40.0478, "ARG_OF_PERICENTER": 7.2459, "MEAN_ANOMALY": 352.8902, "EPHEMERIS_TYPE": 0, "CLASSIFICATION_TYPE": "U", "NORAD_CAT_ID": 40143, "ELEMENT_SET_NO": 999, "REV_AT_EPOCH": 62813, "BSTAR": 0.00018596, "MEAN_MOTION_DOT": 4.41e-05, "MEAN_MOTION_DDOT": 0}, "tle": {"line1": "1 40143U 14053A   25357.18957789  .00004410  00000+0  18596-3 0  9991", "line2": "2 40143  97.1738  40.0478 0008683   7.2459 352.8902 15.23774868628134"}}, "geometry": {"type": "Point", "coordinates": [-137.8997902414946, 13.795406469205568]}}, {"type": "Feature", "properties": {"norad_id": 40275, "name": "YAOGAN-22", "group": "resource", "lat": -60.71473858840002, "lon": -58.73105778935196, "alt_km": 1204.5669434593265, "timestamp": "2025-12-23T11:34:47.839133+00:00", "meta": {"OBJECT_NAME": "YAOGAN-22", "OBJECT_ID": "2014-063A", "EPOCH": "2025-12-23T03:02:59.112384", "MEAN_MOTION": 13.15523006, "ECCENTRICITY": 0.0006067, "INCLINATION": 100.7429, "RA_OF_ASC_NODE": 140.6935, "ARG_OF_PERICENTER": 223.3805, "MEAN_ANOMALY": 136.6829, "EPHEMERIS_TYPE": 0, "CLASSIFICATION_TYPE": "U", "NORAD_CAT_ID": 40275, "ELEMENT_SET_NO": 999, "REV_AT_EPOCH": 53666, "BSTAR": 0.00010141, "MEAN_MOTION_DOT": -8e-08, "MEAN_MOTION_DDOT": 0}, "tle": {"line1": "1 40275U 14063A   25357.12707306 -.00000008  00000+0  10141-3 0  9998", "line2": "2 40275 100.7429 140.6935 0006067 223.3805 136.6829 13.15523006536660"}}, "geometry": {"type": "Point", "coordinates": [-58.73105778935196, -60.71473858840002]}}, {"type": "Feature", "properties": {"norad_id": 40298, "name": "ASNARO", "group": "resource", "lat": 53.837196728505305, "lon": 62.97381736385649, "alt_km": 498.61637076316765, "timestamp": "2025-12-23T11:34:47.839142+00:00", "meta": {"OBJECT_NAME": "ASNARO", "OBJECT_ID": "2014-070A", "EPOCH": "2025-12-23T05:01:12.127296", "MEAN_MOTION": 15.19699768, "ECCENTRICITY": 0.0005771, "INCLINATION": 97.3646, "RA_OF_ASC_NODE": 72.8999, "ARG_OF_PERICENTER": 94.6613, "MEAN_ANOMALY": 265.5282, "EPHEMERIS_TYPE": 0, "CLASSIFICATION_TYPE": "U", "NORAD_CAT_ID": 40298, "ELEMENT_SET_NO": 999, "REV_AT_EPOCH": 61728, "BSTAR": 0.00050288, "MEAN_MOTION_DOT": 0.00010682, "MEAN_MOTION_DDOT": 0}, "tle": {"line1": "1 40298U 14070A   25357.20916814  .00010682  00000+0  50288-3 0  9990", "line2": "2 40298  97.3646  72.8999 0005771  94.6613 265.5282 15.19699768617288"}}, "geometry": {"type": "Point", "coordinates": [62.97381736385649, 53.837196728505305]}}, {"type": "Feature", "properties": {"norad_id": 40310, "name": "YAOGAN-24", "group": "resource", "lat": 28.39847801432777, "lon": -46.93773084930212, "alt_km": 632.5947878455181, "timestamp": "2025-12-23T11:34:47.839151+00:00", "meta": {"OBJECT_NAME": "YAOGAN-24", "OBJECT_ID": "2014-072A", "EPOCH": "2025-12-23T04:23:29.384736", "MEAN_MOTION": 14.76194869, "ECCENTRICITY": 0.0015179, "INCLINATION": 98.1231, "RA_OF_ASC_NODE": 128.3323, "ARG_OF_PERICENTER": 106.8767, "MEAN_ANOMALY": 253.4108, "EPHEMERIS_TYPE": 0, "CLASSIFICATION_TYPE": "U", "NORAD_CAT_ID": 40310, "ELEMENT_SET_NO": 999, "REV_AT_EPOCH": 59775, "BSTAR": 6.3715e-05, "MEAN_MOTION_DOT": 3.88e-06, "MEAN_MOTION_DDOT": 0}, "tle": {"line1": "1 40310U 14072A   25357.18297899  .00000388  00000+0  63715-4 0  9991", "line2": "2 40310  98.1231 128.3323 0015179 106.8767 253.4108 14.76194869597755"}}, "geometry": {"type": "Point", "coordinates": [-46.93773084930212, 28.39847801432777]}}, {"type": "Feature", "properties": {"norad_id": 40336, "name": "CBERS 4", "group": "resource", "lat": 57.82200605553565, "lon": -111.4042961069293, "alt_km": 766.5033507116295, "timestamp": "2025-12-23T11:34:47.839160+00:00", "meta": {"OBJECT_NAME": "CBERS 4", "OBJECT_ID": "2014-079A", "EPOCH": "2025-12-23T04:19:35.086944", "MEAN_MOTION": 14.35521419, "ECCENTRICITY": 0.0001853, "INCLINATION": 98.3294, "RA_OF_ASC_NODE": 54.8395, "ARG_OF_PERICENTER": 101.8197, "MEAN_ANOMALY": 258.3197, "EPHEMERIS_TYPE": 0, "CLASSIFICATION_TYPE": "U", "NORAD_CAT_ID": 40336, "ELEMENT_SET_NO": 999, "REV_AT_EPOCH": 57870, "BSTAR": 4.372e-05, "MEAN_MOTION_DOT": 8.4e-07, "MEAN_MOTION_DDOT": 0}, "tle": {"line1": "1 40336U 14079A   25357.18026721  .00000084  00000+0  43720-4 0  9997", "line2": "2 40336  98.3294  54.8395 0001853 101.8197 258.3197 14.35521419578708"}}, "geometry": {"type": "Point", "coordinates": [-111.4042961069293, 57.82200605553565]}}, {"type": "Feature", "properties": {"norad_id": 40362, "name": "YAOGAN-26", "group": "resource", "lat": 50.39465791649166, "lon": -173.60559845878876, "alt_km": 444.7370391907025, "timestamp": "2025-12-23T11:34:47.839169+00:00", "meta": {"OBJECT_NAME": "YAOGAN-26", "OBJECT_ID": "2014-088A", "EPOCH": "2025-12-23T04:46:57.079200", "MEAN_MOTION": 15.39658758, "ECCENTRICITY": 0.0004763, "INCLINATION": 97.0637, "RA_OF_ASC_NODE": 357.5021, "ARG_OF_PERICENTER": 357.223, "MEAN_ANOMALY": 2.899, "EPHEMERIS_TYPE": 0, "CLASSIFICATION_TYPE": "U", "NORAD_CAT_ID": 40362, "ELEMENT_SET_NO": 999, "REV_AT_EPOCH": 61055, "BSTAR": 0.00065327, "MEAN_MOTION_DOT": 0.00025757, "MEAN_MOTION_DDOT": 0}, "tle": {"line1": "1 40362U 14088A   25357.19927175  .00025757  00000+0  65327-3 0  9990", "line2": "2 40362  97.0637 357.5021 0004763 357.2230   2.8990 15.39658758610556"}}, "geometry": {"type": "Point", "coordinates": [-173.60559845878876, 50.39465791649166]}}, {"type": "Feature", "properties": {"norad_id": 40376, "name": "SMAP", "group": "resource", "lat": -40.94248789513173, "lon": 9.17426675767474, "alt_km": 689.4939374767864, "timestamp": "2025-12-23T11:34:47.839178+00:00", "meta": {"OBJECT_NAME": "SMAP", "OBJECT_ID": "2015-003A", "EPOCH": "2025-12-23T03:33:49.734720", "MEAN_MOTION": 14.63357429, "ECCENTRICITY": 0.000123, "INCLINATION": 98.1289, "RA_OF_ASC_NODE": 1.7223, "ARG_OF_PERICENTER": 91.7952, "MEAN_ANOMALY": 268.3391, "EPHEMERIS_TYPE": 0, "CLASSIFICATION_TYPE": "U", "NORAD_CAT_ID": 40376, "ELEMENT_SET_NO": 999, "REV_AT_EPOCH": 58187, "BSTAR": 0.0001077, "MEAN_MOTION_DOT": 5.09e-06, "MEAN_MOTION_DDOT": 0}, "tle": {"line1": "1 40376U 15003A   25357.14849230  .00000509  00000+0  10770-3 0  9993", "line2": "2 40376  98.1289   1.7223 0001230  91.7952 268.3391 14.63357429581878"}}, "geometry": {"type": "Point", "coordinates": [9.17426675767474, -40.94248789513173]}}, {"type": "Feature", "properties": {"norad_id": 40536, "name": "KOMPSAT-3A", "group": "resource", "lat": -68.39466646199853, "lon": 132.5028863206913, "alt_km": 443.844137639182, "timestamp": "2025-12-23T11:34:47.839187+00:00", "meta": {"OBJECT_NAME": "KOMPSAT-3A", "OBJECT_ID": "2015-014A", "EPOCH": "2025-12-23T04:16:54.916896", "MEAN_MOTION": 15.44311644, "ECCENTRICITY": 0.000559, "INCLINATION": 97.6801, "RA_OF_ASC_NODE": 332.1041, "ARG_OF_PERICENTER": 103.7156, "MEAN_ANOMALY": 256.4714, "EPHEMERIS_TYPE": 0, "CLASSIFICATION_TYPE": "U", "NORAD_CAT_ID": 40536, "ELEMENT_SET_NO": 999, "REV_AT_EPOCH": 59456, "BSTAR": 0.00045462, "MEAN_MOTION_DOT": 0.00020885, "MEAN_MOTION_DDOT": 0}, "tle": {"line1": "1 40536U 15014A   25357.17841339  .00020885  00000+0  45462-3 0  9993", "line2": "2 40536  97.6801 332.1041 0005590 103.7156 256.4714 15.44311644594568"}}, "geometry": {"type": "Point", "coordinates": [132.5028863206913, -68.39466646199853]}}, {"type": "Feature", "properties": {"norad_id": 40697, "name": "SENTINEL-2A", "group": "resource", "lat": 10.400742495180134, "lon": 68.27789383805457, "alt_km": 790.3483773024227, "timestamp": "2025-12-23T11:34:47.839196+00:00", "meta": {"OBJECT_NAME": "SENTINEL-2A", "OBJECT_ID": "2015-028A", "EPOCH": "2025-12-23T04:49:03.376128", "MEAN_MOTION": 14.3080886, "ECCENTRICITY": 0.0001052, "INCLINATION": 98.5736, "RA_OF_ASC_NODE": 69.5868, "ARG_OF_PERICENTER": 88.9865, "MEAN_ANOMALY": 271.1438, "EPHEMERIS_TYPE": 0, "CLASSIFICATION_TYPE": "U", "NORAD_CAT_ID": 40697, "ELEMENT_SET_NO": 999, "REV_AT_EPOCH": 54856, "BSTAR": 1.0009e-05, "MEAN_MOTION_DOT": -1.7e-07, "MEAN_MOTION_DDOT": 0}, "tle": {"line1": "1 40697U 15028A   25357.20073352 -.00000017  00000+0  10009-4 0  9998", "line2": "2 40697  98.5736  69.5868 0001052  88.9865 271.1438 14.30808860548562"}}, "geometry": {"type": "Point", "coordinates": [68.27789383805457, 10.400742495180134]}}]}